*******************************************************************************
Ephemeris / WWW_USER Mon Mar 24 09:38:33 2025 Pasadena, USA      / Horizons    
*******************************************************************************
Target body name: 468861 (2013 LU28)              {source: JPL#36}
Center body name: Earth (399)                     {source: DE441}
Center-site name: Mauna Kea
*******************************************************************************
Start time      : A.D. 2018-Sep-03 04:45:00.0000 UT      
Stop  time      : A.D. 2018-Sep-03 15:57:00.0000 UT      
Step-size       : 1 minutes
*******************************************************************************
Target pole/equ : undefined
Target radii    : undefined                                                    
Center geodetic : 204.5278, 19.8260847, 4.21024   {E-lon(deg),Lat(deg),Alt(km)}
Center cylindric: 204.5278, 6006.35451, 2151.0229 {E-lon(deg),Dxy(km),Dz(km)}
Center pole/equ : ITRF93                          {East-longitude positive}
Center radii    : 6378.137, 6378.137, 6356.752 km {Equator_a, b, pole_c}       
Target primary  : Sun
Vis. interferer : MOON (R_eq= 1737.400) km        {source: DE441}
Rel. light bend : Sun                             {source: DE441}
Rel. lght bnd GM: 1.3271E+11 km^3/s^2                                          
Small-body perts: Yes                             {source: SB441-N16}
Atmos refraction: NO (AIRLESS)
RA format       : HMS
Time format     : CAL 
Calendar mode   : Mixed Julian/Gregorian
RTS-only print  : NO       
EOP file        : eop.250321.p250617                                           
EOP coverage    : DATA-BASED 1962-JAN-20 TO 2025-MAR-21. PREDICTS-> 2025-JUN-16
Units conversion: 1 au= 149597870.700 km, c= 299792.458 km/s, 1 day= 86400.0 s 
Table cut-offs 1: Elevation (-90.0deg=NO ),Airmass (>38.000=NO), Daylight (YES)
Table cut-offs 2: Solar elongation (  0.0,180.0=NO ),Local Hour Angle( 0.0=NO )
Table cut-offs 3: RA/DEC angular rate (     0.0=NO )                           
*******************************************************************************
Initial IAU76/J2000 heliocentric ecliptic osculating elements (au, days, deg.):
  EPOCH=  2459491.5 ! 2021-Oct-04.00 (TDB)         Residual RMS= .14077        
   EC= .9545524767334098   QR= 8.741840911970645   TP= 2460480.7801673855      
   OM= 275.9923561772391   W=  152.9171912923278   IN= 125.3473013584344       
  Equivalent ICRF heliocentric cartesian coordinates (au, au/d):
   X=-6.020062670108302E+00  Y=-1.182282064265113E+00  Z= 8.330249486138040E+00
  VX= 2.086988006100027E-03 VY= 7.079392581348984E-03 VZ=-1.092497303529149E-03
Asteroid physical parameters (km, seconds, rotational period in hours):        
   GM= n.a.                RAD= n.a.               ROTPER= n.a.                
   H= 8.24                 G= .150                 B-V= n.a.                   
                           ALBEDO= n.a.            STYP= n.a.                  
*******************************************************************************
 Date__(UT)__HR:MN     R.A._________(ICRF)_________DEC
******************************************************
$$SOE
 2018-Sep-03 06:48     14 58 53.531615 +35 47 44.37307
 2018-Sep-03 06:49     14 58 53.533769 +35 47 44.27222
 2018-Sep-03 06:50     14 58 53.535924 +35 47 44.17135
 2018-Sep-03 06:51     14 58 53.538081 +35 47 44.07049
 2018-Sep-03 06:52     14 58 53.540238 +35 47 43.96962
 2018-Sep-03 06:53     14 58 53.542396 +35 47 43.86875
 2018-Sep-03 06:54     14 58 53.544555 +35 47 43.76788
 2018-Sep-03 06:55     14 58 53.546715 +35 47 43.66701
 2018-Sep-03 06:56     14 58 53.548876 +35 47 43.56613
 2018-Sep-03 06:57     14 58 53.551038 +35 47 43.46525
 2018-Sep-03 06:58     14 58 53.553201 +35 47 43.36437
 2018-Sep-03 06:59     14 58 53.555364 +35 47 43.26349
 2018-Sep-03 07:00     14 58 53.557529 +35 47 43.16260
 2018-Sep-03 07:01     14 58 53.559695 +35 47 43.06172
 2018-Sep-03 07:02     14 58 53.561861 +35 47 42.96083
 2018-Sep-03 07:03     14 58 53.564029 +35 47 42.85994
 2018-Sep-03 07:04     14 58 53.566198 +35 47 42.75904
 2018-Sep-03 07:05     14 58 53.568367 +35 47 42.65815
 2018-Sep-03 07:06     14 58 53.570538 +35 47 42.55725
 2018-Sep-03 07:07     14 58 53.572709 +35 47 42.45635
 2018-Sep-03 07:08     14 58 53.574881 +35 47 42.35545
 2018-Sep-03 07:09     14 58 53.577055 +35 47 42.25455
 2018-Sep-03 07:10     14 58 53.579229 +35 47 42.15364
 2018-Sep-03 07:11     14 58 53.581404 +35 47 42.05274
 2018-Sep-03 07:12     14 58 53.583581 +35 47 41.95183
 2018-Sep-03 07:13     14 58 53.585758 +35 47 41.85092
 2018-Sep-03 07:14     14 58 53.587936 +35 47 41.75000
 2018-Sep-03 07:15     14 58 53.590115 +35 47 41.64909
 2018-Sep-03 07:16     14 58 53.592295 +35 47 41.54817
 2018-Sep-03 07:17     14 58 53.594476 +35 47 41.44726
 2018-Sep-03 07:18     14 58 53.596658 +35 47 41.34634
 2018-Sep-03 07:19     14 58 53.598842 +35 47 41.24542
 2018-Sep-03 07:20     14 58 53.601026 +35 47 41.14449
 2018-Sep-03 07:21     14 58 53.603211 +35 47 41.04357
 2018-Sep-03 07:22     14 58 53.605397 +35 47 40.94264
 2018-Sep-03 07:23     14 58 53.607584 +35 47 40.84172
 2018-Sep-03 07:24     14 58 53.609772 +35 47 40.74079
 2018-Sep-03 07:25     14 58 53.611961 +35 47 40.63986
 2018-Sep-03 07:26     14 58 53.614150 +35 47 40.53893
 2018-Sep-03 07:27     14 58 53.616341 +35 47 40.43799
 2018-Sep-03 07:28     14 58 53.618533 +35 47 40.33706
 2018-Sep-03 07:29     14 58 53.620726 +35 47 40.23612
 2018-Sep-03 07:30     14 58 53.622920 +35 47 40.13518
 2018-Sep-03 07:31     14 58 53.625115 +35 47 40.03425
 2018-Sep-03 07:32     14 58 53.627311 +35 47 39.93331
 2018-Sep-03 07:33     14 58 53.629508 +35 47 39.83236
 2018-Sep-03 07:34     14 58 53.631706 +35 47 39.73142
 2018-Sep-03 07:35     14 58 53.633904 +35 47 39.63048
 2018-Sep-03 07:36     14 58 53.636104 +35 47 39.52953
 2018-Sep-03 07:37     14 58 53.638305 +35 47 39.42858
 2018-Sep-03 07:38     14 58 53.640507 +35 47 39.32764
 2018-Sep-03 07:39     14 58 53.642710 +35 47 39.22669
 2018-Sep-03 07:40     14 58 53.644914 +35 47 39.12574
 2018-Sep-03 07:41     14 58 53.647119 +35 47 39.02479
 2018-Sep-03 07:42     14 58 53.649324 +35 47 38.92384
 2018-Sep-03 07:43     14 58 53.651531 +35 47 38.82288
 2018-Sep-03 07:44     14 58 53.653739 +35 47 38.72193
 2018-Sep-03 07:45     14 58 53.655948 +35 47 38.62097
 2018-Sep-03 07:46     14 58 53.658158 +35 47 38.52002
 2018-Sep-03 07:47     14 58 53.660369 +35 47 38.41906
 2018-Sep-03 07:48     14 58 53.662581 +35 47 38.31810
 2018-Sep-03 07:49     14 58 53.664793 +35 47 38.21714
 2018-Sep-03 07:50     14 58 53.667007 +35 47 38.11618
 2018-Sep-03 07:51     14 58 53.669222 +35 47 38.01522
 2018-Sep-03 07:52     14 58 53.671438 +35 47 37.91426
 2018-Sep-03 07:53     14 58 53.673655 +35 47 37.81330
 2018-Sep-03 07:54     14 58 53.675873 +35 47 37.71234
 2018-Sep-03 07:55     14 58 53.678092 +35 47 37.61138
 2018-Sep-03 07:56     14 58 53.680312 +35 47 37.51041
 2018-Sep-03 07:57     14 58 53.682533 +35 47 37.40945
 2018-Sep-03 07:58     14 58 53.684755 +35 47 37.30848
 2018-Sep-03 07:59     14 58 53.686978 +35 47 37.20752
 2018-Sep-03 08:00     14 58 53.689202 +35 47 37.10655
 2018-Sep-03 08:01     14 58 53.691427 +35 47 37.00558
 2018-Sep-03 08:02     14 58 53.693653 +35 47 36.90461
 2018-Sep-03 08:03     14 58 53.695880 +35 47 36.80365
 2018-Sep-03 08:04     14 58 53.698108 +35 47 36.70268
 2018-Sep-03 08:05     14 58 53.700337 +35 47 36.60171
 2018-Sep-03 08:06     14 58 53.702567 +35 47 36.50074
 2018-Sep-03 08:07     14 58 53.704798 +35 47 36.39977
 2018-Sep-03 08:08     14 58 53.707030 +35 47 36.29880
 2018-Sep-03 08:09     14 58 53.709263 +35 47 36.19783
 2018-Sep-03 08:10     14 58 53.711498 +35 47 36.09686
 2018-Sep-03 08:11     14 58 53.713733 +35 47 35.99589
 2018-Sep-03 08:12     14 58 53.715969 +35 47 35.89492
 2018-Sep-03 08:13     14 58 53.718206 +35 47 35.79395
 2018-Sep-03 08:14     14 58 53.720444 +35 47 35.69297
 2018-Sep-03 08:15     14 58 53.722684 +35 47 35.59200
 2018-Sep-03 08:16     14 58 53.724924 +35 47 35.49103
 2018-Sep-03 08:17     14 58 53.727165 +35 47 35.39006
 2018-Sep-03 08:18     14 58 53.729408 +35 47 35.28909
 2018-Sep-03 08:19     14 58 53.731651 +35 47 35.18811
 2018-Sep-03 08:20     14 58 53.733895 +35 47 35.08714
 2018-Sep-03 08:21     14 58 53.736141 +35 47 34.98617
 2018-Sep-03 08:22     14 58 53.738387 +35 47 34.88520
 2018-Sep-03 08:23     14 58 53.740635 +35 47 34.78422
 2018-Sep-03 08:24     14 58 53.742883 +35 47 34.68325
 2018-Sep-03 08:25     14 58 53.745132 +35 47 34.58228
 2018-Sep-03 08:26     14 58 53.747383 +35 47 34.48131
 2018-Sep-03 08:27     14 58 53.749635 +35 47 34.38034
 2018-Sep-03 08:28     14 58 53.751887 +35 47 34.27937
 2018-Sep-03 08:29     14 58 53.754141 +35 47 34.17839
 2018-Sep-03 08:30     14 58 53.756395 +35 47 34.07742
 2018-Sep-03 08:31     14 58 53.758651 +35 47 33.97645
 2018-Sep-03 08:32     14 58 53.760907 +35 47 33.87548
 2018-Sep-03 08:33     14 58 53.763165 +35 47 33.77451
 2018-Sep-03 08:34     14 58 53.765424 +35 47 33.67354
 2018-Sep-03 08:35     14 58 53.767684 +35 47 33.57257
 2018-Sep-03 08:36     14 58 53.769944 +35 47 33.47160
 2018-Sep-03 08:37     14 58 53.772206 +35 47 33.37064
 2018-Sep-03 08:38     14 58 53.774469 +35 47 33.26967
 2018-Sep-03 08:39     14 58 53.776733 +35 47 33.16870
 2018-Sep-03 08:40     14 58 53.778997 +35 47 33.06773
 2018-Sep-03 08:41     14 58 53.781263 +35 47 32.96677
 2018-Sep-03 08:42     14 58 53.783530 +35 47 32.86580
 2018-Sep-03 08:43     14 58 53.785798 +35 47 32.76484
 2018-Sep-03 08:44     14 58 53.788067 +35 47 32.66387
 2018-Sep-03 08:45     14 58 53.790337 +35 47 32.56291
 2018-Sep-03 08:46     14 58 53.792608 +35 47 32.46194
 2018-Sep-03 08:47     14 58 53.794880 +35 47 32.36098
 2018-Sep-03 08:48     14 58 53.797153 +35 47 32.26002
 2018-Sep-03 08:49     14 58 53.799427 +35 47 32.15906
 2018-Sep-03 08:50     14 58 53.801702 +35 47 32.05810
